#cP2023 11 23  0  0  0.00000000      96 ORBIT IGS20 HLM  IGS
## 2289 345600.00000000   900.00000000 60271 0.0000000000000
+   32   G01G02G03G04G05G06G07G08G09G10G11G12G13G14G15G16G17
+        G18G19G20G21G22G23G24G25G26G27G28G29G30G31G32  0  0
+          0  0  0  0  0  0  0  0  0  0  0  0  0  0  0  0  0
+          0  0  0  0  0  0  0  0  0  0  0  0  0  0  0  0  0
+          0  0  0  0  0  0  0  0  0  0  0  0  0  0  0  0  0
++         2  2  2  1  2  2  2  2  2  2  2  2  2  2  2  2  2
++         2  2  2  2  2  2  2  2  2  1  2  2  2  2  1  0  0
++         0  0  0  0  0  0  0  0  0  0  0  0  0  0  0  0  0
++         0  0  0  0  0  0  0  0  0  0  0  0  0  0  0  0  0
++         0  0  0  0  0  0  0  0  0  0  0  0  0  0  0  0  0
%c G  cc GPS ccc cccc cccc cccc cccc ccccc ccccc ccccc ccccc
%c cc cc ccc ccc cccc cccc cccc cccc ccccc ccccc ccccc ccccc
%f  1.2500000  1.025000000  0.00000000000  0.000000000000000
%f  0.0000000  0.000000000  0.00000000000  0.000000000000000
%i    0    0    0    0      0      0      0      0         0
%i    0    0    0    0      0      0      0      0         0
/* FINAL ORBIT COMBINATION FROM WEIGHTED AVERAGE OF:        
/* cod esa gfz grg jgx jpl mit ngs sio                      
/* REFERENCED TO IGS TIME (IGST) AND TO WEIGHTED MEAN POLE: 
/* PCV:IGS20      OL/AL:FES2014b NONE     Y  ORB:CMB CLK:CMB
*  2023 11 23 12  0  0.00000000
PG01 -14414.086645  22019.606700  -2126.513705    163.279054  5  4  7  58       
PG02 -16380.674392  20089.263420   5773.160728   -525.162563  4  2  6  64       
PG03 -12546.692330  12295.640691 -20030.513520      5.133337  6  5  4  59       
PG04  -4198.404626  20060.264012 -16812.871526    220.668555  3  4  4  75       
PG05  23506.012475  -6293.769781  10577.344043   -151.468480  5  4  7  49       
PG06  13952.346447   5262.399211 -21919.349129    498.244149  7  5  2  84       
PG07   -569.983284  21078.171067  16333.605740      6.042574  7  3  4  52       
PG08 -10252.428015  12504.969573  20917.826067   -153.483397  4  4  4  65       
PG09   5544.167469  24583.179752  -8386.760149      5.533076  7  4  4  72       
PG10 -20175.960277 -11021.422494  13777.713394    -62.507747  2  1  3  80       
PG11  19488.375092  -5906.462245 -17000.739622   -472.123944  9  5  6  78       
PG12  14581.873061 -11286.274653 -19369.230406   -450.050787 10  4  8  70       
PG13  14980.485142  -1776.144569  21671.534203    598.321845  3  4  1  66       
PG14  16851.567905  13352.007407  15730.562772    251.288802  5  6  5  50       
PG15   8613.117950 -14158.412808  20226.311974     99.950292  3  4  5  88       
PG16 -26128.765347   -683.853619   5614.248949   -417.032927  8  5  3  89       
PG17  12796.912512  22431.952409  -5456.660066    722.932257  7  5  4 100       
PG18    159.226471 -20099.887686  17277.892504   -487.166111  2     6  53       
PG19  15789.640196  16501.469335 -14039.059839    402.828198  9  3  3  89       
PG20  26371.464227   -823.758460  -1950.617398    400.185590  7     3  75       
PG21 -17352.826495  17545.853455   8958.278922    143.506047  3  2  6  43       
PG22  21618.009505  11357.328415  10529.691967     78.693737  8  7  4  69       
PG23  -8055.894693 -14537.975105  20774.017273    103.751038  2  3  6  79       
PG24  15177.729788 -21142.227402   3603.414071   -377.847184  6  6  1  95       
PG25    677.536338 -15548.840811 -21851.111286    478.610342  7  6  7  70       
PG26 -26138.778485  -3707.482850  -4491.553787    214.622224  9  9  7  73       
PG27 -16636.471490  -2071.688442  20439.522842    -73.834707  4  4  6  82       
PG28 -13344.444082  -7370.286854 -21776.760640    -52.741682  6  4  4  64       
PG29  -2978.096785 -24860.843471  -8749.920066   -610.150827  8  5  4  81       
PG30   8439.128959  14466.848158  20685.500444   -465.205115  5  3  3  60       
PG31 -18180.047000   1188.685450 -19666.199396   -226.003328  3  6  2  55       
PG32 -16019.333876 -19340.322603  -8778.049446   -588.976149  4  4  3  92       
*  2023 11 23 12 15  0.00000000
PG01 -14596.359119  21940.872192    806.450045    163.279269  5  3  7  76       
PG02 -16220.502221  19311.140784   8497.521695   -525.158036  4  3  6           
PG03 -14719.350350  12073.568297 -18617.808225      5.156714  6  5  4  66       
PG04  -5186.689777  18285.963257 -18488.149441    220.677904  4  4  4  69       
PG05  24585.495311  -6076.787231   7983.248505   -151.469320  5  3  7  67       
PG06  12551.135531   7367.286740 -22149.570750    498.234744  7  5  2  94       
PG07  -1683.895426  22377.206137  14304.188030      6.033479  7  3  4  48       
PG08 -11482.811943  10386.252175  21465.940851   -153.485934  4  5  4  59       
PG09   4814.074752  23730.065486 -10939.067446      5.543344  7  4  4  63       
PG10 -18518.819748 -11050.887503  15914.516995    -62.509017  1  2  3  74       
PG11  18400.614071  -4169.642076 -18650.168385   -472.138254  9  4  6  88       
PG12  16629.452445 -10901.192903 -17852.727263   -450.054556 10  5  8  80       
PG13  15754.503613    592.328117  21205.459188    598.325424  4  4     64       
PG14  14947.396523  13369.476806  17524.051289    251.298430  4  6  5  72       
PG15  10101.093825 -12194.489371  20814.884116     99.953633  2  4  5  86       
PG16 -26606.150336   -965.892058   2832.809149   -417.027109  8  4  4  94       
PG17  12782.889600  22996.001064  -2621.519108    722.932253  7  5  4  95       
PG18   1338.885029 -21556.813424  15345.846340   -487.175664  2  2  6  62       
PG19  16149.776241  17897.165335 -11724.656340    402.832979  9  4  3  88       
PG20  26016.139151   -486.780303  -4763.689337    400.183376  8     4  76       
PG21 -17061.844288  16414.803785  11527.820016    143.505123  4  3  5  25       
PG22  20308.398057  11385.148735  12957.212335     78.687355  7  7  4  55       
PG23  -5644.474950 -14521.841541  21549.879189    103.756862  3  3  5  72       
PG24  15204.222855 -20422.606334   6349.651066   -377.855027  6  5  2  95       
PG25   3101.007122 -15426.528586 -21701.663411    478.611756  6  6  8  51       
PG26 -25496.772181  -4011.630835  -7164.500100    214.619803  9  9  7  83       
PG27 -17617.577337  -4169.629207  19316.980759    -73.839317  3  4  6  88       
PG28 -12051.042751  -9488.939878 -21710.621976    -52.749696  6  4  4  84       
PG29  -2356.362863 -23880.134847 -11317.080549   -610.150606  8  4  4  83       
PG30   7070.832923  16325.194589  19766.340605   -465.201397  5  3  2  75       
PG31 -16966.098585   -721.709668 -20718.902311   -226.003588  4  7  2  53       
PG32 -16215.002174 -20217.851452  -6107.631123   -588.979928  3  4  3  92       
*  2023 11 23 12 30  0.00000000
PG01 -14612.943866  21583.062979   3725.188151    163.279459  6  3  6  23       
PG02 -15972.594734  18258.430105  11076.539880   -525.153460  3  3  6  66       
PG03 -16724.944995  11971.621673 -16887.169704      5.180081  6  5  5  66       
PG04  -6347.071642  16414.914415 -19843.690894    220.687179  4  4  4  59       
PG05  25372.420384  -5903.814171   5251.634311   -151.470934  5  3  6  74       
PG06  11268.267102   9552.527639 -21996.216506    498.225339  7  4  2  81       
PG07  -2615.439465  23523.580162  12030.066151      6.024735  7  2  4  50       
PG08 -12838.984250   8301.372078  21640.809508   -153.488197  5  4  5  68       
PG09   3896.658922  22678.854815 -13303.318932      5.553575  7  4  3  70       
PG10 -16640.894481 -11174.914263  17784.767634    -62.510028     2  3  71       
PG11  17315.127745  -2235.837207 -19977.544041   -472.152598  8  4  6  82       
PG12  18509.910910 -10636.760276 -16034.571106   -450.058142 11  5  8  73       
PG13  16624.395351   2844.963389  20368.845725    598.329274  4  4     66       
PG14  12860.371817  13478.278078  19018.397073    251.308057  3  6  5  75       
PG15  11706.089214 -10266.283500  21028.372790     99.957145  2  4  4  71       
PG16 -26783.824838  -1192.803621      3.734367   -417.021140  8  5  4  88       
PG17  12655.401752  23266.609625    259.400911    722.931527  6  4  3  86       
PG18   2318.717404 -22874.232327  13147.767616   -487.185285  2  2  5  74       
PG19  16474.540387  19024.852907  -9213.968921    402.837607  8  4  2  84       
PG20  25368.008516    -77.460260  -7493.772791    400.181702  8     5  67       
PG21 -16708.529586  15021.753074  13893.871855    143.503958  5  3  5  48       
PG22  18746.008358  11456.406633  15163.885465     78.681241  5  7  4  59       
PG23  -3167.178659 -14640.204431  21956.267540    103.762760  4  2  4  82       
PG24  15137.414251 -19423.297622   8982.541365   -377.862873  6  5  2  86       
PG25   5493.729542 -15428.585234 -21188.951157    478.613236  6  6  8  61       
PG26 -24579.517819  -4368.120696  -9717.227447    214.617308  9  8  7  86       
PG27 -18631.580178  -6081.888085  17858.801242    -73.843926  3  4  5  86       
PG28 -10883.477594 -11647.092966 -21271.846072    -52.757679  6  4  5  81       
PG29  -1560.848674 -22682.456127 -13688.832500   -610.150455  8  4  4  69       
PG30   5853.250553  18143.505440  18508.333978   -465.197654  5  3  1  70       
PG31 -15801.056658  -2779.424209 -21424.111099   -226.003783  4  7  3  60       
PG32 -16300.208591 -20818.113377  -3332.856388   -588.983753  3  4  4  89       
EOF
